ALOS (DAICHI)           
1 28931U 06002A   25346.89970487  .00002437  00000+0  41933-3 0  9991
2 28931  98.1092 298.3859 0001145 115.8389 244.2934 14.69489225 60738
H-2A R/B                
1 28932U 06002B   25346.91750998  .00015131  00000+0  79335-3 0  9990
2 28932  98.2312 121.6802 0054466 175.7631 184.4071 15.14577426 81293
RESURS-DK 1             
1 29228U 06021A   25346.76422980  .00004255  00000+0  25216-3 0  9994
2 29228  69.9331 101.7749 0007220 259.1692 100.8661 15.12161288 74389
CZ-4B R/B               
1 29507U 06046C   25346.83512902  .00007310  00000+0  38020-3 0  9995
2 29507  97.5737  26.9730 0033272 206.0504 153.9056 15.15874401 46885
CZ-2C R/B               
1 31114U 07010B   25346.93006544  .00000272  00000+0  14389-3 0  9997
2 31114  98.3975  99.5714 0058978 185.4522 174.6021 14.20210206967407
COSMO-SKYMED 1          
1 31598U 07023A   25346.98887486  .00005807  00000+0  52596-3 0  9995
2 31598  97.8835 172.3895 0001232  88.6605 271.4757 14.95766931  1942
COSMOS 2428             
1 31792U 07029A   25346.80916723  .00000128  00000+0  94649-4 0  9992
2 31792  70.9368  25.7343 0003673  23.4289 336.6998 14.12889805951823
SL-16 R/B               
1 31793U 07029B   25347.02652806 -.00000034  00000+0  69520-5 0  9995
2 31793  70.9756 354.5550 0002150 262.1352 163.8443 14.14814754953112
KORONAS-FOTON           
1 33504U 09003A   25347.01414633  .00016240  00000+0  38911-3 0  9997
2 33504  82.4315   5.8216 0013231 107.5053 252.7640 15.41193721932388
CZ-2C R/B               
1 37731U 11030B   25346.86260971  .00002583  00000+0  33369-3 0  9999
2 37731  97.8410 300.9665 0051341 273.1841 140.5042 14.80903668777249
H-2A R/B                
1 38341U 12025E   25346.97449519  .00005293  00000+0  48784-3 0  9999
2 38341  98.4602 302.2229 0043642 235.3250 124.3852 14.94456894735261
SHIJIAN-16 (SJ-16)      
1 39358U 13057A   25347.00462878  .00002393  00000+0  23828-3 0  9992
2 39358  74.9734 349.1537 0017659 319.2095  40.7769 14.91987537658571
