CCSDS_OMM_VERS = 2.0
CREATION_DATE  = 
ORIGINATOR     = 

OBJECT_NAME    = ALOS (DAICHI)
OBJECT_ID      = 2006-002A
CENTER_NAME    = EARTH
REF_FRAME      = TEME
TIME_SYSTEM    = UTC
MEAN_ELEMENT_THEORY = SGP/SGP4

EPOCH          = 2025-12-12T21:35:34.500768
MEAN_MOTION    = 14.69489225
ECCENTRICITY   = .0001145
INCLINATION    = 98.1092
RA_OF_ASC_NODE = 298.3859
ARG_OF_PERICENTER = 115.8389
MEAN_ANOMALY   = 244.2934

EPHEMERIS_TYPE = 0
CLASSIFICATION_TYPE = U
NORAD_CAT_ID   = 28931
ELEMENT_SET_NO = 999
REV_AT_EPOCH   = 6073
BSTAR          = .41933387E-3
MEAN_MOTION_DOT = .2437E-4
MEAN_MOTION_DDOT = 0

CCSDS_OMM_VERS = 2.0
CREATION_DATE  = 
ORIGINATOR     = 

OBJECT_NAME    = H-2A R/B
OBJECT_ID      = 2006-002B
CENTER_NAME    = EARTH
REF_FRAME      = TEME
TIME_SYSTEM    = UTC
MEAN_ELEMENT_THEORY = SGP/SGP4

EPOCH          = 2025-12-12T22:01:12.862272
MEAN_MOTION    = 15.14577426
ECCENTRICITY   = .00544665
INCLINATION    = 98.2312
RA_OF_ASC_NODE = 121.6802
ARG_OF_PERICENTER = 175.7631
MEAN_ANOMALY   = 184.4071

EPHEMERIS_TYPE = 0
CLASSIFICATION_TYPE = U
NORAD_CAT_ID   = 28932
ELEMENT_SET_NO = 999
REV_AT_EPOCH   = 8129
BSTAR          = .79335214E-3
MEAN_MOTION_DOT = .15131E-3
MEAN_MOTION_DDOT = 0

CCSDS_OMM_VERS = 2.0
CREATION_DATE  = 
ORIGINATOR     = 

OBJECT_NAME    = RESURS-DK 1
OBJECT_ID      = 2006-021A
CENTER_NAME    = EARTH
REF_FRAME      = TEME
TIME_SYSTEM    = UTC
MEAN_ELEMENT_THEORY = SGP/SGP4

EPOCH          = 2025-12-12T18:20:29.454720
MEAN_MOTION    = 15.12161288
ECCENTRICITY   = .00072209
INCLINATION    = 69.9331
RA_OF_ASC_NODE = 101.7749
ARG_OF_PERICENTER = 259.1692
MEAN_ANOMALY   = 100.8661

EPHEMERIS_TYPE = 0
CLASSIFICATION_TYPE = U
NORAD_CAT_ID   = 29228
ELEMENT_SET_NO = 999
REV_AT_EPOCH   = 7438
BSTAR          = .25215557E-3
MEAN_MOTION_DOT = .4255E-4
MEAN_MOTION_DDOT = 0

CCSDS_OMM_VERS = 2.0
CREATION_DATE  = 
ORIGINATOR     = 

OBJECT_NAME    = CZ-4B R/B
OBJECT_ID      = 2006-046C
CENTER_NAME    = EARTH
REF_FRAME      = TEME
TIME_SYSTEM    = UTC
MEAN_ELEMENT_THEORY = SGP/SGP4

EPOCH          = 2025-12-12T20:02:35.147328
MEAN_MOTION    = 15.15874401
ECCENTRICITY   = .00332722
INCLINATION    = 97.5737
RA_OF_ASC_NODE = 26.9730
ARG_OF_PERICENTER = 206.0504
MEAN_ANOMALY   = 153.9056

EPHEMERIS_TYPE = 0
CLASSIFICATION_TYPE = U
NORAD_CAT_ID   = 29507
ELEMENT_SET_NO = 999
REV_AT_EPOCH   = 4688
BSTAR          = .38019502E-3
MEAN_MOTION_DOT = .731E-4
MEAN_MOTION_DDOT = 0

CCSDS_OMM_VERS = 2.0
CREATION_DATE  = 
ORIGINATOR     = 

OBJECT_NAME    = CZ-2C R/B
OBJECT_ID      = 2007-010B
CENTER_NAME    = EARTH
REF_FRAME      = TEME
TIME_SYSTEM    = UTC
MEAN_ELEMENT_THEORY = SGP/SGP4

EPOCH          = 2025-12-12T22:19:17.654016
MEAN_MOTION    = 14.20210206
ECCENTRICITY   = .00589788
INCLINATION    = 98.3975
RA_OF_ASC_NODE = 99.5714
ARG_OF_PERICENTER = 185.4522
MEAN_ANOMALY   = 174.6021

EPHEMERIS_TYPE = 0
CLASSIFICATION_TYPE = U
NORAD_CAT_ID   = 31114
ELEMENT_SET_NO = 999
REV_AT_EPOCH   = 96740
BSTAR          = .14388687E-3
MEAN_MOTION_DOT = .272E-5
MEAN_MOTION_DDOT = 0

CCSDS_OMM_VERS = 2.0
CREATION_DATE  = 
ORIGINATOR     = 

OBJECT_NAME    = COSMO-SKYMED 1
OBJECT_ID      = 2007-023A
CENTER_NAME    = EARTH
REF_FRAME      = TEME
TIME_SYSTEM    = UTC
MEAN_ELEMENT_THEORY = SGP/SGP4

EPOCH          = 2025-12-12T23:43:58.787904
MEAN_MOTION    = 14.95766931
ECCENTRICITY   = .00012327
INCLINATION    = 97.8835
RA_OF_ASC_NODE = 172.3895
ARG_OF_PERICENTER = 88.6605
MEAN_ANOMALY   = 271.4757

EPHEMERIS_TYPE = 0
CLASSIFICATION_TYPE = U
NORAD_CAT_ID   = 31598
ELEMENT_SET_NO = 999
REV_AT_EPOCH   = 194
BSTAR          = .52596313E-3
MEAN_MOTION_DOT = .5807E-4
MEAN_MOTION_DDOT = 0

CCSDS_OMM_VERS = 2.0
CREATION_DATE  = 
ORIGINATOR     = 

OBJECT_NAME    = COSMOS 2428
OBJECT_ID      = 2007-029A
CENTER_NAME    = EARTH
REF_FRAME      = TEME
TIME_SYSTEM    = UTC
MEAN_ELEMENT_THEORY = SGP/SGP4

EPOCH          = 2025-12-12T19:25:12.048672
MEAN_MOTION    = 14.12889805
ECCENTRICITY   = .0003673
INCLINATION    = 70.9368
RA_OF_ASC_NODE = 25.7343
ARG_OF_PERICENTER = 23.4289
MEAN_ANOMALY   = 336.6998

EPHEMERIS_TYPE = 0
CLASSIFICATION_TYPE = U
NORAD_CAT_ID   = 31792
ELEMENT_SET_NO = 999
REV_AT_EPOCH   = 95182
BSTAR          = .94649262E-4
MEAN_MOTION_DOT = .128E-5
MEAN_MOTION_DDOT = 0

CCSDS_OMM_VERS = 2.0
CREATION_DATE  = 
ORIGINATOR     = 

OBJECT_NAME    = SL-16 R/B
OBJECT_ID      = 2007-029B
CENTER_NAME    = EARTH
REF_FRAME      = TEME
TIME_SYSTEM    = UTC
MEAN_ELEMENT_THEORY = SGP/SGP4

EPOCH          = 2025-12-13T00:38:12.024384
MEAN_MOTION    = 14.14814754
ECCENTRICITY   = .00021508
INCLINATION    = 70.9756
RA_OF_ASC_NODE = 354.5550
ARG_OF_PERICENTER = 262.1352
MEAN_ANOMALY   = 163.8443

EPHEMERIS_TYPE = 0
CLASSIFICATION_TYPE = U
NORAD_CAT_ID   = 31793
ELEMENT_SET_NO = 999
REV_AT_EPOCH   = 95311
BSTAR          = .6952021E-5
MEAN_MOTION_DOT = -.34E-6
MEAN_MOTION_DDOT = 0

CCSDS_OMM_VERS = 2.0
CREATION_DATE  = 
ORIGINATOR     = 

OBJECT_NAME    = KORONAS-FOTON
OBJECT_ID      = 2009-003A
CENTER_NAME    = EARTH
REF_FRAME      = TEME
TIME_SYSTEM    = UTC
MEAN_ELEMENT_THEORY = SGP/SGP4

EPOCH          = 2025-12-13T00:20:22.242912
MEAN_MOTION    = 15.41193721
ECCENTRICITY   = .0013231
INCLINATION    = 82.4315
RA_OF_ASC_NODE = 5.8216
ARG_OF_PERICENTER = 107.5053
MEAN_ANOMALY   = 252.7640

EPHEMERIS_TYPE = 0
CLASSIFICATION_TYPE = U
NORAD_CAT_ID   = 33504
ELEMENT_SET_NO = 999
REV_AT_EPOCH   = 93238
BSTAR          = .38911432E-3
MEAN_MOTION_DOT = .1624E-3
MEAN_MOTION_DDOT = 0

CCSDS_OMM_VERS = 2.0
CREATION_DATE  = 
ORIGINATOR     = 

OBJECT_NAME    = CZ-2C R/B
OBJECT_ID      = 2011-030B
CENTER_NAME    = EARTH
REF_FRAME      = TEME
TIME_SYSTEM    = UTC
MEAN_ELEMENT_THEORY = SGP/SGP4

EPOCH          = 2025-12-12T20:42:09.478944
MEAN_MOTION    = 14.80903668
ECCENTRICITY   = .00513413
INCLINATION    = 97.8410
RA_OF_ASC_NODE = 300.9665
ARG_OF_PERICENTER = 273.1841
MEAN_ANOMALY   = 140.5042

EPHEMERIS_TYPE = 0
CLASSIFICATION_TYPE = U
NORAD_CAT_ID   = 37731
ELEMENT_SET_NO = 999
REV_AT_EPOCH   = 77724
BSTAR          = .3336933E-3
MEAN_MOTION_DOT = .2583E-4
MEAN_MOTION_DDOT = 0

CCSDS_OMM_VERS = 2.0
CREATION_DATE  = 
ORIGINATOR     = 

OBJECT_NAME    = H-2A R/B
OBJECT_ID      = 2012-025E
CENTER_NAME    = EARTH
REF_FRAME      = TEME
TIME_SYSTEM    = UTC
MEAN_ELEMENT_THEORY = SGP/SGP4

EPOCH          = 2025-12-12T23:23:16.384416
MEAN_MOTION    = 14.94456894
ECCENTRICITY   = .00436422
INCLINATION    = 98.4602
RA_OF_ASC_NODE = 302.2229
ARG_OF_PERICENTER = 235.3250
MEAN_ANOMALY   = 124.3852

EPHEMERIS_TYPE = 0
CLASSIFICATION_TYPE = U
NORAD_CAT_ID   = 38341
ELEMENT_SET_NO = 999
REV_AT_EPOCH   = 73526
BSTAR          = .48784472E-3
MEAN_MOTION_DOT = .5293E-4
MEAN_MOTION_DDOT = 0

CCSDS_OMM_VERS = 2.0
CREATION_DATE  = 
ORIGINATOR     = 

OBJECT_NAME    = SHIJIAN-16 (SJ-16)
OBJECT_ID      = 2013-057A
CENTER_NAME    = EARTH
REF_FRAME      = TEME
TIME_SYSTEM    = UTC
MEAN_ELEMENT_THEORY = SGP/SGP4

EPOCH          = 2025-12-13T00:06:39.926592
MEAN_MOTION    = 14.91987537
ECCENTRICITY   = .00176593
INCLINATION    = 74.9734
RA_OF_ASC_NODE = 349.1537
ARG_OF_PERICENTER = 319.2095
MEAN_ANOMALY   = 40.7769

EPHEMERIS_TYPE = 0
CLASSIFICATION_TYPE = U
NORAD_CAT_ID   = 39358
ELEMENT_SET_NO = 999
REV_AT_EPOCH   = 65857
BSTAR          = .23827988E-3
MEAN_MOTION_DOT = .2393E-4
MEAN_MOTION_DDOT = 0

